APRIZESAT 2             
1 28366U 04025A   22348.85426438  .00000145  00000+0  59026-4 0  9990
2 28366  98.1372 208.5290 0108008 151.8314 208.8775 14.36882347967727
SAUDICOMSAT 1           
1 28369U 04025D   22348.46100017  .00000537  00000+0  14089-3 0  9996
2 28369  98.4670 311.4711 0033153 345.9252  14.1017 14.52939034978049
SAUDICOMSAT 2           
1 28370U 04025E   22348.64862140  .00000328  00000+0  99497-4 0  9995
2 28370  98.5588 311.1299 0057582 174.8072 185.3730 14.47825241974709
APRIZESAT 1             
1 28372U 04025G   22349.41629613  .00000338  00000+0  98212-4 0  9994
2 28372  98.5200 311.9415 0047307  85.0459 275.6133 14.49907888976371
NANOSAT-1               
1 28493U 04049B   22348.72487745  .00000961  00000+0  15307-3 0  9990
2 28493  98.1190  89.7198 0005724  81.0654 279.1202 14.74283908966426
SAUDICOMSAT 7           
1 31119U 07012C   22349.42410949  .00000673  00000+0  14012-3 0  9994
2 31119  98.2073 293.7842 0058309 244.1568 115.3613 14.62298198835204
SAUDICOMSAT 6           
1 31121U 07012E   22349.15529854  .00000788  00000+0  17156-3 0  9992
2 31121  98.2465 288.7671 0075935 351.6310   8.3617 14.59055606833360
SAUDICOMSAT 5           
1 31124U 07012H   22348.73027778  .00000604  00000+0  12242-3 0  9994
2 31124  98.1767 294.5161 0050796 189.9210 170.0994 14.64037869835965
SAUDICOMSAT 3           
1 31125U 07012J   22349.10968961  .00000721  00000+0  13915-3 0  9993
2 31125  98.1427 296.1753 0043685 133.2540 227.2323 14.65889362837047
SAUDICOMSAT 4           
1 31127U 07012L   22348.72274725  .00000774  00000+0  16380-3 0  9997
2 31127  98.2294 291.5145 0066392 297.2632  62.1816 14.60799233834197
APRIZESAT 4             
1 35684U 09041D   22348.84776151  .00000623  00000+0  88736-4 0  9994
2 35684  98.3021   8.6245 0047594 131.9433 228.5850 14.79869104721794
APRIZESAT 3             
1 35686U 09041F   22348.70681116  .00001117  00000+0  12205-3 0  9993
2 35686  98.1028  79.3664 0070638 317.9863  41.5948 14.88302043725417
AISSAT 1                
1 36797U 10035C   22348.48361052  .00001801  00000+0  20462-3 0  9995
2 36797  98.2334 179.1506 0009888 309.6327  50.4014 14.87603746673337
S-NET D                 
1 43186U 18014G   22349.01980842  .00003628  00000+0  30622-3 0  9992
2 43186  97.6475 251.2349 0012486  58.5008 301.7433 14.98688201265950
S-NET B                 
1 43187U 18014H   22349.02022415  .00003608  00000+0  30458-3 0  9992
2 43187  97.6471 251.1778 0012537  58.3779 301.8666 14.98685736265951
S-NET A                 
1 43188U 18014J   22349.62142114  .00003903  00000+0  32907-3 0  9997
2 43188  97.6478 251.8418 0012518  56.4618 303.7799 14.98691995266040
S-NET C                 
1 43189U 18014K   22349.62252665  .00003880  00000+0  32715-3 0  9992
2 43189  97.6475 251.7547 0012545  56.1133 304.1281 14.98688479264591
SALSAT                  
1 46495U 20068K   22348.61842844  .00002841  00000+0  20160-3 0  9996
2 46495  97.7496 290.2437 0017237  31.9489 328.2779 15.05468259121280
